FLOCK 4G-25             
1 62646U 25009AP  26068.74572546  .00010373  00000+0  38902-3 0  9990
2 62646  97.4049 151.4141 0000828 316.3151  43.8023 15.27424196 63734
STARLINK-34100          
1 64385U 25127R   26068.62312048  .00023952  00000+0  87620-3 0  9997
2 64385  43.0043 180.4476 0002542 293.0590  66.9994 15.27611959 42402
